[{"OBJECT_NAME":"ONEWEB-0712","OBJECT_ID":"2022-166AQ","EPOCH":"2026-04-09T03:08:18.119328","MEAN_MOTION":13.16592454,"ECCENTRICITY":0.0002281,"INCLINATION":87.9053,"RA_OF_ASC_NODE":242.4942,"ARG_OF_PERICENTER":105.0847,"MEAN_ANOMALY":255.0536,"EPHEMERIS_TYPE":0,"CLASSIFICATION_TYPE":"U","NORAD_CAT_ID":54680,"ELEMENT_SET_NO":999,"REV_AT_EPOCH":16297,"BSTAR":8.537200000000001e-05,"MEAN_MOTION_DOT":4.5e-07,"MEAN_MOTION_DDOT":0.0},{"OBJECT_NAME":"ONEWEB-0714","OBJECT_ID":"2022-166AR","EPOCH":"2026-04-09T03:18:55.694304","MEAN_MOTION":13.21932952,"ECCENTRICITY":0.0001938,"INCLINATION":87.9183,"RA_OF_ASC_NODE":257.7347,"ARG_OF_PERICENTER":103.0732,"MEAN_ANOMALY":257.0619,"EPHEMERIS_TYPE":0,"CLASSIFICATION_TYPE":"U","NORAD_CAT_ID":54681,"ELEMENT_SET_NO":999,"REV_AT_EPOCH":16241,"BSTAR":-0.010637,"MEAN_MOTION_DOT":-4.385e-05,"MEAN_MOTION_DDOT":0.0},{"OBJECT_NAME":"ONEWEB-0532","OBJECT_ID":"2023-004A","EPOCH":"2026-04-09T05:38:38.707872","MEAN_MOTION":13.17651174,"ECCENTRICITY":0.0001423,"INCLINATION":87.9182,"RA_OF_ASC_NODE":19.5598,"ARG_OF_PERICENTER":75.7209,"MEAN_ANOMALY":284.4081,"EPHEMERIS_TYPE":0,"CLASSIFICATION_TYPE":"U","NORAD_CAT_ID":55140,"ELEMENT_SET_NO":999,"REV_AT_EPOCH":15850,"BSTAR":3.9368e-05,"MEAN_MOTION_DOT":2.8e-07,"MEAN_MOTION_DDOT":0.0},{"OBJECT_NAME":"ONEWEB-0533","OBJECT_ID":"2023-004B","EPOCH":"2026-04-09T03:47:15.104544","MEAN_MOTION":13.12442498,"ECCENTRICITY":0.000177,"INCLINATION":87.9017,"RA_OF_ASC_NODE":4.3783,"ARG_OF_PERICENTER":85.6402,"MEAN_ANOMALY":274.4929,"EPHEMERIS_TYPE":0,"CLASSIFICATION_TYPE":"U","NORAD_CAT_ID":55141,"ELEMENT_SET_NO":999,"REV_AT_EPOCH":15900,"BSTAR":-0.00067838,"MEAN_MOTION_DOT":-2.31e-06,"MEAN_MOTION_DDOT":0.0},{"OBJECT_NAME":"ONEWEB-0541","OBJECT_ID":"2023-004C","EPOCH":"2026-04-09T06:52:18.398784","MEAN_MOTION":13.11414438,"ECCENTRICITY":0.0001828,"INCLINATION":87.8916,"RA_OF_ASC_NODE":34.7486,"ARG_OF_PERICENTER":74.1224,"MEAN_ANOMALY":286.0105,"EPHEMERIS_TYPE":0,"CLASSIFICATION_TYPE":"U","NORAD_CAT_ID":55142,"ELEMENT_SET_NO":999,"REV_AT_EPOCH":15691,"BSTAR":0.00055026,"MEAN_MOTION_DOT":2.08e-06,"MEAN_MOTION_DDOT":0.0},{"OBJECT_NAME":"ONEWEB-0543","OBJECT_ID":"2023-004D","EPOCH":"2026-04-09T04:36:36.439488","MEAN_MOTION":13.18684913,"ECCENTRICITY":0.0002055,"INCLINATION":87.9221,"RA_OF_ASC_NODE":349.1918,"ARG_OF_PERICENTER":83.3383,"MEAN_ANOMALY":276.7983,"EPHEMERIS_TYPE":0,"CLASSIFICATION_TYPE":"U","NORAD_CAT_ID":55143,"ELEMENT_SET_NO":999,"REV_AT_EPOCH":16060,"BSTAR":0.00013005,"MEAN_MOTION_DOT":6.4e-07,"MEAN_MOTION_DDOT":0.0},{"OBJECT_NAME":"ONEWEB-0544","OBJECT_ID":"2023-004E","EPOCH":"2026-04-09T04:27:05.198112","MEAN_MOTION":13.18685923,"ECCENTRICITY":0.000196,"INCLINATION":87.9222,"RA_OF_ASC_NODE":349.1921,"ARG_OF_PERICENTER":74.8018,"MEAN_ANOMALY":285.3331,"EPHEMERIS_TYPE":0,"CLASSIFICATION_TYPE":"U","NORAD_CAT_ID":55144,"ELEMENT_SET_NO":999,"REV_AT_EPOCH":16060,"BSTAR":-0.00059298,"MEAN_MOTION_DOT":-2.21e-06,"MEAN_MOTION_DDOT":0.0},{"OBJECT_NAME":"ONEWEB-0560","OBJECT_ID":"2023-004F","EPOCH":"2026-04-09T06:06:52.147008","MEAN_MOTION":13.18684997,"ECCENTRICITY":0.0001954,"INCLINATION":87.9222,"RA_OF_ASC_NODE":349.1678,"ARG_OF_PERICENTER":75.8459,"MEAN_ANOMALY":284.289,"EPHEMERIS_TYPE":0,"CLASSIFICATION_TYPE":"U","NORAD_CAT_ID":55145,"ELEMENT_SET_NO":999,"REV_AT_EPOCH":16062,"BSTAR":0.00018567,"MEAN_MOTION_DOT":8.6e-07,"MEAN_MOTION_DDOT":0.0},{"OBJECT_NAME":"ONEWEB-0565","OBJECT_ID":"2023-004G","EPOCH":"2026-04-09T04:08:05.227008","MEAN_MOTION":13.18685961,"ECCENTRICITY":0.000181,"INCLINATION":87.921,"RA_OF_ASC_NODE":349.2184,"ARG_OF_PERICENTER":65.2055,"MEAN_ANOMALY":294.9265,"EPHEMERIS_TYPE":0,"CLASSIFICATION_TYPE":"U","NORAD_CAT_ID":55146,"ELEMENT_SET_NO":999,"REV_AT_EPOCH":16060,"BSTAR":-0.00062746,"MEAN_MOTION_DOT":-2.34e-06,"MEAN_MOTION_DDOT":0.0},{"OBJECT_NAME":"ONEWEB-0567","OBJECT_ID":"2023-004H","EPOCH":"2026-04-09T02:09:20.682144","MEAN_MOTION":13.18685493,"ECCENTRICITY":0.0001902,"INCLINATION":87.9223,"RA_OF_ASC_NODE":349.2128,"ARG_OF_PERICENTER":68.7374,"MEAN_ANOMALY":291.3961,"EPHEMERIS_TYPE":0,"CLASSIFICATION_TYPE":"U","NORAD_CAT_ID":55147,"ELEMENT_SET_NO":999,"REV_AT_EPOCH":16059,"BSTAR":8.1578e-05,"MEAN_MOTION_DOT":4.5e-07,"MEAN_MOTION_DDOT":0.0},{"OBJECT_NAME":"ONEWEB-0569","OBJECT_ID":"2023-004J","EPOCH":"2026-04-08T21:57:39.614976","MEAN_MOTION":13.1346945,"ECCENTRICITY":0.0002489,"INCLINATION":87.9003,"RA_OF_ASC_NODE":334.009,"ARG_OF_PERICENTER":67.4762,"MEAN_ANOMALY":292.663,"EPHEMERIS_TYPE":0,"CLASSIFICATION_TYPE":"U","NORAD_CAT_ID":55148,"ELEMENT_SET_NO":999,"REV_AT_EPOCH":16108,"BSTAR":-0.00066594,"MEAN_MOTION_DOT":-2.3e-06,"MEAN_MOTION_DDOT":0.0},{"OBJECT_NAME":"ONEWEB-0570","OBJECT_ID":"2023-004K","EPOCH":"2026-04-09T03:44:19.932000","MEAN_MOTION":13.1868856,"ECCENTRICITY":0.0001341,"INCLINATION":87.9223,"RA_OF_ASC_NODE":349.1977,"ARG_OF_PERICENTER":70.3956,"MEAN_ANOMALY":289.7321,"EPHEMERIS_TYPE":0,"CLASSIFICATION_TYPE":"U","NORAD_CAT_ID":55149,"ELEMENT_SET_NO":999,"REV_AT_EPOCH":16059,"BSTAR":0.00013292000000000002,"MEAN_MOTION_DOT":6.5e-07,"MEAN_MOTION_DDOT":0.0},{"OBJECT_NAME":"ONEWEB-0571","OBJECT_ID":"2023-004L","EPOCH":"2026-04-08T22:07:03.057888","MEAN_MOTION":13.18688254,"ECCENTRICITY":0.0002373,"INCLINATION":87.9222,"RA_OF_ASC_NODE":349.2432,"ARG_OF_PERICENTER":49.1387,"MEAN_ANOMALY":310.9951,"EPHEMERIS_TYPE":0,"CLASSIFICATION_TYPE":"U","NORAD_CAT_ID":55150,"ELEMENT_SET_NO":999,"REV_AT_EPOCH":16057,"BSTAR":2.2133e-05,"MEAN_MOTION_DOT":2.2e-07,"MEAN_MOTION_DDOT":0.0},{"OBJECT_NAME":"ONEWEB-0572","OBJECT_ID":"2023-004M","EPOCH":"2026-04-09T06:22:22.893600","MEAN_MOTION":13.17651533,"ECCENTRICITY":0.000184,"INCLINATION":87.9183,"RA_OF_ASC_NODE":19.5551,"ARG_OF_PERICENTER":71.5287,"MEAN_ANOMALY":288.6044,"EPHEMERIS_TYPE":0,"CLASSIFICATION_TYPE":"U","NORAD_CAT_ID":55151,"ELEMENT_SET_NO":999,"REV_AT_EPOCH":15840,"BSTAR":8.6687e-05,"MEAN_MOTION_DOT":4.7e-07,"MEAN_MOTION_DDOT":0.0},{"OBJECT_NAME":"ONEWEB-0573","OBJECT_ID":"2023-004N","EPOCH":"2026-04-09T05:14:36.110400","MEAN_MOTION":13.18678326,"ECCENTRICITY":0.0001823,"INCLINATION":87.9219,"RA_OF_ASC_NODE":349.1859,"ARG_OF_PERICENTER":56.8899,"MEAN_ANOMALY":303.2408,"EPHEMERIS_TYPE":0,"CLASSIFICATION_TYPE":"U","NORAD_CAT_ID":55152,"ELEMENT_SET_NO":999,"REV_AT_EPOCH":16060,"BSTAR":0.0031211,"MEAN_MOTION_DOT":1.243e-05,"MEAN_MOTION_DDOT":0.0},{"OBJECT_NAME":"ONEWEB-0588","OBJECT_ID":"2023-004P","EPOCH":"2026-04-09T05:05:06.195264","MEAN_MOTION":13.18687859,"ECCENTRICITY":0.0001441,"INCLINATION":87.9219,"RA_OF_ASC_NODE":349.1878,"ARG_OF_PERICENTER":70.7098,"MEAN_ANOMALY":289.419,"EPHEMERIS_TYPE":0,"CLASSIFICATION_TYPE":"U","NORAD_CAT_ID":55153,"ELEMENT_SET_NO":999,"REV_AT_EPOCH":16060,"BSTAR":-0.00015273999999999998,"MEAN_MOTION_DOT":-4.7e-07,"MEAN_MOTION_DDOT":0.0}]