ONEWEB-0712             
1 54680U 22166AQ  26099.13076527  .00000045  00000+0  85372-4 0  9994
2 54680  87.9053 242.4942 0002281 105.0847 255.0536 13.16592454162973
ONEWEB-0714             
1 54681U 22166AR  26099.13814461 -.00004385  00000+0 -10637-1 0  9994
2 54681  87.9183 257.7347 0001938 103.0732 257.0619 13.21932952162415
ONEWEB-0532             
1 55140U 23004A   26099.23517023  .00000028  00000+0  39368-4 0  9995
2 55140  87.9182  19.5598 0001423  75.7209 284.4081 13.17651174158501
ONEWEB-0533             
1 55141U 23004B   26099.15781371 -.00000231  00000+0 -67838-3 0  9996
2 55141  87.9017   4.3783 0001770  85.6402 274.4929 13.12442498159005
ONEWEB-0541             
1 55142U 23004C   26099.28632406  .00000208  00000+0  55026-3 0  9993
2 55142  87.8916  34.7486 0001828  74.1224 286.0105 13.11414438156913
ONEWEB-0543             
1 55143U 23004D   26099.19208842  .00000064  00000+0  13005-3 0  9998
2 55143  87.9221 349.1918 0002055  83.3383 276.7983 13.18684913160603
ONEWEB-0544             
1 55144U 23004E   26099.18547683 -.00000221  00000+0 -59298-3 0  9998
2 55144  87.9222 349.1921 0001960  74.8018 285.3331 13.18685923160608
ONEWEB-0560             
1 55145U 23004F   26099.25477022  .00000086  00000+0  18567-3 0  9997
2 55145  87.9222 349.1678 0001954  75.8459 284.2890 13.18684997160621
ONEWEB-0565             
1 55146U 23004G   26099.17228272 -.00000234  00000+0 -62746-3 0  9995
2 55146  87.9210 349.2184 0001810  65.2055 294.9265 13.18685961160602
ONEWEB-0567             
1 55147U 23004H   26099.08982271  .00000045  00000+0  81578-4 0  9995
2 55147  87.9223 349.2128 0001902  68.7374 291.3961 13.18685493160591
ONEWEB-0569             
1 55148U 23004J   26098.91504184 -.00000230  00000+0 -66594-3 0  9998
2 55148  87.9003 334.0090 0002489  67.4762 292.6630 13.13469450161086
ONEWEB-0570             
1 55149U 23004K   26099.15578625  .00000065  00000+0  13292-3 0  9998
2 55149  87.9223 349.1977 0001341  70.3956 289.7321 13.18688560160595
ONEWEB-0571             
1 55150U 23004L   26098.92156317  .00000022  00000+0  22133-4 0  9992
2 55150  87.9222 349.2432 0002373  49.1387 310.9951 13.18688254160575
ONEWEB-0572             
1 55151U 23004M   26099.26554275  .00000047  00000+0  86687-4 0  9997
2 55151  87.9183  19.5551 0001840  71.5287 288.6044 13.17651533158409
ONEWEB-0573             
1 55152U 23004N   26099.21847350  .00001243  00000+0  31211-2 0  9992
2 55152  87.9219 349.1859 0001823  56.8899 303.2408 13.18678326160602
ONEWEB-0588             
1 55153U 23004P   26099.21187726 -.00000047  00000+0 -15274-3 0  9992
2 55153  87.9219 349.1878 0001441  70.7098 289.4190 13.18687859160600
